GLOBALSTAR M094 [+]     
1 39074U 13005C   24088.92498128 -.00000102  00000+0  82847-5 0  9994
2 39074  51.9941  97.8077 0000421  59.0472 301.0435 12.62264179516149
GLOBALSTAR M078 [+]     
1 39076U 13005E   24088.59549888 -.00000093  00000+0  59713-4 0  9993
2 39076  51.9859 232.0973 0000367 252.5386 107.5440 12.62261621513646
GLOBALSTAR M095 [+]     
1 39077U 13005F   24088.70044851 -.00000087  00000+0  95949-4 0  9991
2 39077  51.9785 229.1911 0000267  32.8801 327.2082 12.62276344513511
